{"type": "FeatureCollection", "features": [ {"type": "Feature", "properties": {"norad_id": 39634, "name": "SENTINEL-1A", "group": "resource", "lat": 45.05696243807926, "lon": -165.4076265778319, "alt_km": 691.3101190289872, "timestamp": "2025-12-27T06:41:30.555631+00:00", "meta": {"OBJECT_NAME": "SENTINEL-1A", "OBJECT_ID": "2014-016A", "EPOCH": "2025-12-26T23:29:44.952000", "MEAN_MOTION": 14.59199519, "ECCENTRICITY": 0.00012622, "INCLINATION": 98.1806, "RA_OF_ASC_NODE": 6.0096, "ARG_OF_PERICENTER": 85.8932, "MEAN_ANOMALY": 274.2412, "EPHEMERIS_TYPE": 0, "CLASSIFICATION_TYPE": "U", "NORAD_CAT_ID": 39634, "ELEMENT_SET_NO": 999, "REV_AT_EPOCH": 62490, "BSTAR": -1.742087e-06, "MEAN_MOTION_DOT": -5.4e-07, "MEAN_MOTION_DDOT": 0}, "tle": {"line1": "1 39634U 14016A   25360.97899250 -.00000054  00000+0 -17421-5 0  9992", "line2": "2 39634  98.1806   6.0096 0001262  85.8932 274.2412 14.59199519624902"}}, "geometry": {"type": "Point", "coordinates": [-165.4076265778319, 45.05696243807926]}}, {"type": "Feature", "properties": {"norad_id": 39731, "name": "KAZEOSAT 1", "group": "resource", "lat": -65.28509075755903, "lon": 91.44653887656916, "alt_km": 759.7252499297983, "timestamp": "2025-12-27T06:41:30.555641+00:00", "meta": {"OBJECT_NAME": "KAZEOSAT 1", "OBJECT_ID": "2014-024A", "EPOCH": "2025-12-26T22:40:27.422976", "MEAN_MOTION": 14.42070034, "ECCENTRICITY": 0.00012487, "INCLINATION": 98.3412, "RA_OF_ASC_NODE": 72.5321, "ARG_OF_PERICENTER": 96.6729, "MEAN_ANOMALY": 263.4603, "EPHEMERIS_TYPE": 0, "CLASSIFICATION_TYPE": "U", "NORAD_CAT_ID": 39731, "ELEMENT_SET_NO": 999, "REV_AT_EPOCH": 61373, "BSTAR": 5.5429008e-05, "MEAN_MOTION_DOT": 1.39e-06, "MEAN_MOTION_DDOT": 0}, "tle": {"line1": "1 39731U 14024A   25360.94476184  .00000139  00000+0  55429-4 0  9994", "line2": "2 39731  98.3412  72.5321 0001248  96.6729 263.4603 14.42070034613735"}}, "geometry": {"type": "Point", "coordinates": [91.44653887656916, -65.28509075755903]}}, {"type": "Feature", "properties": {"norad_id": 39766, "name": "ALOS-2", "group": "resource", "lat": -27.836847765588246, "lon": 100.13372385054474, "alt_km": 637.3790255772519, "timestamp": "2025-12-27T06:41:30.555651+00:00", "meta": {"OBJECT_NAME": "ALOS-2", "OBJECT_ID": "2014-029A", "EPOCH": "2025-12-26T21:04:46.534368", "MEAN_MOTION": 14.79473782, "ECCENTRICITY": 0.00013773, "INCLINATION": 97.9215, "RA_OF_ASC_NODE": 95.5225, "ARG_OF_PERICENTER": 99.181, "MEAN_ANOMALY": 260.9558, "EPHEMERIS_TYPE": 0, "CLASSIFICATION_TYPE": "U", "NORAD_CAT_ID": 39766, "ELEMENT_SET_NO": 999, "REV_AT_EPOCH": 62610, "BSTAR": 0.00017003388, "MEAN_MOTION_DOT": 1.219e-05, "MEAN_MOTION_DDOT": 0}, "tle": {"line1": "1 39766U 14029A   25360.87831637  .00001219  00000+0  17003-3 0  9992", "line2": "2 39766  97.9215  95.5225 0001377  99.1810 260.9558 14.79473782626102"}}, "geometry": {"type": "Point", "coordinates": [100.13372385054474, -27.836847765588246]}}, {"type": "Feature", "properties": {"norad_id": 40010, "name": "KAZEOSAT 2", "group": "resource", "lat": -0.2785224068399095, "lon": 24.805514185391175, "alt_km": 610.374828554839, "timestamp": "2025-12-27T06:41:30.555662+00:00", "meta": {"OBJECT_NAME": "KAZEOSAT 2", "OBJECT_ID": "2014-033A", "EPOCH": "2025-12-26T21:47:55.519872", "MEAN_MOTION": 14.8519014, "ECCENTRICITY": 0.0008824, "INCLINATION": 97.5496, "RA_OF_ASC_NODE": 204.4912, "ARG_OF_PERICENTER": 158.5495, "MEAN_ANOMALY": 201.6092, "EPHEMERIS_TYPE": 0, "CLASSIFICATION_TYPE": "U", "NORAD_CAT_ID": 40010, "ELEMENT_SET_NO": 999, "REV_AT_EPOCH": 62338, "BSTAR": 8.7285257e-05, "MEAN_MOTION_DOT": 6.98e-06, "MEAN_MOTION_DDOT": 0}, "tle": {"line1": "1 40010U 14033A   25360.90828148  .00000698  00000+0  87285-4 0  9998", "line2": "2 40010  97.5496 204.4912 0008824 158.5495 201.6092 14.85190140623383"}}, "geometry": {"type": "Point", "coordinates": [24.805514185391175, -0.2785224068399095]}}, {"type": "Feature", "properties": {"norad_id": 40011, "name": "HODOYOSHI-4", "group": "resource", "lat": 28.91967757333545, "lon": -174.75116862969318, "alt_km": 613.5558921837146, "timestamp": "2025-12-27T06:41:30.555672+00:00", "meta": {"OBJECT_NAME": "HODOYOSHI-4", "OBJECT_ID": "2014-033B", "EPOCH": "2025-12-26T22:29:18.469248", "MEAN_MOTION": 14.87533699, "ECCENTRICITY": 0.00242821, "INCLINATION": 97.5413, "RA_OF_ASC_NODE": 189.1212, "ARG_OF_PERICENTER": 153.5108, "MEAN_ANOMALY": 206.7356, "EPHEMERIS_TYPE": 0, "CLASSIFICATION_TYPE": "U", "NORAD_CAT_ID": 40011, "ELEMENT_SET_NO": 999, "REV_AT_EPOCH": 62319, "BSTAR": 0.00032394814, "MEAN_MOTION_DOT": 2.903e-05, "MEAN_MOTION_DDOT": 0}, "tle": {"line1": "1 40011U 14033B   25360.93701932  .00002903  00000+0  32395-3 0  9995", "line2": "2 40011  97.5413 189.1212 0024282 153.5108 206.7356 14.87533699623197"}}, "geometry": {"type": "Point", "coordinates": [-174.75116862969318, 28.91967757333545]}}, {"type": "Feature", "properties": {"norad_id": 40013, "name": "DEIMOS-2", "group": "resource", "lat": 64.75080906394894, "lon": 73.05668238029905, "alt_km": 581.1757599352604, "timestamp": "2025-12-27T06:41:30.555682+00:00", "meta": {"OBJECT_NAME": "DEIMOS-2", "OBJECT_ID": "2014-033D", "EPOCH": "2025-12-26T22:08:25.226016", "MEAN_MOTION": 14.93035562, "ECCENTRICITY": 0.00014289, "INCLINATION": 97.6049, "RA_OF_ASC_NODE": 236.2552, "ARG_OF_PERICENTER": 109.4458, "MEAN_ANOMALY": 250.6916, "EPHEMERIS_TYPE": 0, "CLASSIFICATION_TYPE": "U", "NORAD_CAT_ID": 40013, "ELEMENT_SET_NO": 999, "REV_AT_EPOCH": 61201, "BSTAR": 0.00046316989, "MEAN_MOTION_DOT": 4.765e-05, "MEAN_MOTION_DDOT": 0}, "tle": {"line1": "1 40013U 14033D   25360.92251419  .00004765  00000+0  46317-3 0  9993", "line2": "2 40013  97.6049 236.2552 0001428 109.4458 250.6916 14.93035562612013"}}, "geometry": {"type": "Point", "coordinates": [73.05668238029905, 64.75080906394894]}}, {"type": "Feature", "properties": {"norad_id": 40015, "name": "HODOYOSHI-3", "group": "resource", "lat": 4.849781014506586, "lon": -12.866630113175095, "alt_km": 595.4706651893339, "timestamp": "2025-12-27T06:41:30.555692+00:00", "meta": {"OBJECT_NAME": "HODOYOSHI-3", "OBJECT_ID": "2014-033F", "EPOCH": "2025-12-26T21:49:06.320352", "MEAN_MOTION": 14.84855978, "ECCENTRICITY": 0.00326658, "INCLINATION": 97.6207, "RA_OF_ASC_NODE": 166.1289, "ARG_OF_PERICENTER": 199.8135, "MEAN_ANOMALY": 160.1814, "EPHEMERIS_TYPE": 0, "CLASSIFICATION_TYPE": "U", "NORAD_CAT_ID": 40015, "ELEMENT_SET_NO": 999, "REV_AT_EPOCH": 62205, "BSTAR": 0.00022438766, "MEAN_MOTION_DOT": 1.873e-05, "MEAN_MOTION_DDOT": 0}, "tle": {"line1": "1 40015U 14033F   25360.90910093  .00001873  00000+0  22439-3 0  9999", "line2": "2 40015  97.6207 166.1289 0032665 199.8135 160.1814 14.84855978622059"}}, "geometry": {"type": "Point", "coordinates": [-12.866630113175095, 4.849781014506586]}}, {"type": "Feature", "properties": {"norad_id": 40053, "name": "SPOT 7", "group": "resource", "lat": 76.70027934958628, "lon": 26.034105727939405, "alt_km": 682.4428674694873, "timestamp": "2025-12-27T06:41:30.555703+00:00", "meta": {"OBJECT_NAME": "SPOT 7", "OBJECT_ID": "2014-034A", "EPOCH": "2025-12-26T23:45:13.833216", "MEAN_MOTION": 14.60751159, "ECCENTRICITY": 0.00015125, "INCLINATION": 98.0882, "RA_OF_ASC_NODE": 62.7351, "ARG_OF_PERICENTER": 81.7595, "MEAN_ANOMALY": 278.3778, "EPHEMERIS_TYPE": 0, "CLASSIFICATION_TYPE": "U", "NORAD_CAT_ID": 40053, "ELEMENT_SET_NO": 999, "REV_AT_EPOCH": 61199, "BSTAR": 0.00010469109, "MEAN_MOTION_DOT": 4.65e-06, "MEAN_MOTION_DDOT": 0}, "tle": {"line1": "1 40053U 14034A   25360.98974344  .00000465  00000+0  10469-3 0  9995", "line2": "2 40053  98.0882  62.7351 0001512  81.7595 278.3778 14.60751159611994"}}, "geometry": {"type": "Point", "coordinates": [26.034105727939405, 76.70027934958628]}}, {"type": "Feature", "properties": {"norad_id": 40072, "name": "SKYSAT-B", "group": "resource", "lat": -34.13292407356962, "lon": -48.522558601586724, "alt_km": 616.2490339912256, "timestamp": "2025-12-27T06:41:30.555713+00:00", "meta": {"OBJECT_NAME": "SKYSAT-B", "OBJECT_ID": "2014-037D", "EPOCH": "2025-12-26T19:32:42.335232", "MEAN_MOTION": 14.87377636, "ECCENTRICITY": 0.00068783, "INCLINATION": 98.363, "RA_OF_ASC_NODE": 305.2652, "ARG_OF_PERICENTER": 111.2738, "MEAN_ANOMALY": 248.9212, "EPHEMERIS_TYPE": 0, "CLASSIFICATION_TYPE": "U", "NORAD_CAT_ID": 40072, "ELEMENT_SET_NO": 999, "REV_AT_EPOCH": 62033, "BSTAR": 0.00022123811, "MEAN_MOTION_DOT": 1.939e-05, "MEAN_MOTION_DDOT": 0}, "tle": {"line1": "1 40072U 14037D   25360.81437888  .00001939  00000+0  22124-3 0  9996", "line2": "2 40072  98.3630 305.2652 0006878 111.2738 248.9212 14.87377636620333"}}, "geometry": {"type": "Point", "coordinates": [-48.522558601586724, -34.13292407356962]}}, {"type": "Feature", "properties": {"norad_id": 40115, "name": "WORLDVIEW-3 (WV-3)", "group": "resource", "lat": 82.02336926217266, "lon": -25.534351131491373, "alt_km": 605.8983027708236, "timestamp": "2025-12-27T06:41:30.555723+00:00", "meta": {"OBJECT_NAME": "WORLDVIEW-3 (WV-3)", "OBJECT_ID": "2014-048A", "EPOCH": "2025-12-26T22:11:42.002016", "MEAN_MOTION": 14.84680957, "ECCENTRICITY": 0.00021153, "INCLINATION": 97.8762, "RA_OF_ASC_NODE": 73.0322, "ARG_OF_PERICENTER": 126.7155, "MEAN_ANOMALY": 233.4254, "EPHEMERIS_TYPE": 0, "CLASSIFICATION_TYPE": "U", "NORAD_CAT_ID": 40115, "ELEMENT_SET_NO": 999, "REV_AT_EPOCH": 61634, "BSTAR": 0.00016072568, "MEAN_MOTION_DOT": 1.307e-05, "MEAN_MOTION_DDOT": 0}, "tle": {"line1": "1 40115U 14048A   25360.92479169  .00001307  00000+0  16073-3 0  9991", "line2": "2 40115  97.8762  73.0322 0002115 126.7155 233.4254 14.84680957616340"}}, "geometry": {"type": "Point", "coordinates": [-25.534351131491373, 82.02336926217266]}}]}